ONEWEB-0201             
1 48241U 21031AH  22250.86590043 -.00015236  00000+0 -41155-1 0  9997
2 48241  87.9106 203.6840 0001983  55.5937 304.5380 13.14577611 67305
ONEWEB-0207             
1 48242U 21031AJ  22250.38486809  .00000059  00000+0  12563-3 0  9997
2 48242  87.9105 203.7452 0001926  88.5812 271.5539 13.14504111 67157
ONEWEB-0208             
1 48243U 21031AK  22250.43774610  .00000993  00000+0  26429-2 0  9996
2 48243  87.9191 203.7081 0002019  70.0645 290.0703 13.14499749 67176
ONEWEB-0200             
1 48244U 21031AL  22250.63016204 -.00003385  00000+0 -91650-2 0  9995
2 48244  87.9194 203.6621 0002238  67.4382 292.6984 13.14523034 67129
ONEWEB-0217             
1 48245U 21031AM  22250.41871663  .00000099  00000+0  23196-3 0  9998
2 48245  87.9107 203.7294 0001669  64.8060 295.3242 13.14504462 67044
ONEWEB-0211             
1 48767U 21045A   22250.70884712  .00000127  00000+0  30387-3 0  9995
2 48767  87.9148 173.5425 0002066  64.4714 295.6629 13.15551183 63177
ONEWEB-0223             
1 48768U 21045B   22250.72999571 -.00000055  00000+0 -18064-3 0  9998
2 48768  87.9156 173.5127 0002263  60.7353 299.4003 13.15547215 63161
ONEWEB-0230             
1 48769U 21045C   22250.70249937  .00000142  00000+0  34437-3 0  9998
2 48769  87.9190 173.5526 0002222  71.6968 288.4404 13.15553195 63427
ONEWEB-0237             
1 48770U 21045D   22250.76801734  .00000119  00000+0  28325-3 0  9998
2 48770  87.9177 173.4109 0002544  67.3633 292.7767 13.15545790 63150
ONEWEB-0235             
1 48771U 21045E   22250.74054450 -.00000099  00000+0 -29711-3 0  9991
2 48771  87.9197 173.4627 0002858  59.3387 300.8024 13.15550296 63146
ONEWEB-0242             
1 48772U 21045F   22250.73420198 -.00000108  00000+0 -32111-3 0  9996
2 48772  87.9148 173.4979 0002297  74.2346 285.9038 13.15550352 63186
ONEWEB-0241             
1 48773U 21045G   22250.72153971  .00000069  00000+0  14897-3 0  9993
2 48773  87.9140 173.4724 0001933  55.4613 304.6700 13.15548394 63099
ONEWEB-0243             
1 48774U 21045H   22250.75322306 -.00000073  00000+0 -22704-3 0  9990
2 48774  87.9199 173.5119 0002585  67.7477 292.3928 13.15550546 63122
ONEWEB-0222             
1 48775U 21045J   22250.74265115 -.00000092  00000+0 -27771-3 0  9994
2 48775  87.9194 173.5350 0002071  63.4711 296.6631 13.15545828 63168
ONEWEB-0244             
1 48776U 21045K   22250.70148507  .00000160  00000+0  39001-3 0  9999
2 48776  87.9137 173.4632 0002710  73.8720 286.2708 13.15544251 63724
ONEWEB-0247             
1 48777U 21045L   22250.75956639  .00000028  00000+0  39841-4 0  9994
2 48777  87.9147 173.4472 0002674  61.8807 298.2593 13.15549498 64308
ONEWEB-0245             
1 48778U 21045M   22250.75534433 -.00000606  00000+0 -16433-2 0  9993
2 48778  87.9201 173.4751 0002223  49.8151 310.3173 13.15552356 63146
ONEWEB-0229             
1 48779U 21045N   22250.74898258 -.00005652  00000+0 -15052-1 0  9992
2 48779  87.9197 173.4662 0003153  56.4124 303.7307 13.15572190 63175
ONEWEB-0228             
1 48780U 21045P   22250.76376774 -.00000083  00000+0 -25416-3 0  9990
2 48780  87.9176 173.4673 0002260  71.3621 288.7755 13.15549847 63095
ONEWEB-0232             
1 48781U 21045Q   22250.75743815 -.00000794  00000+0 -21425-2 0  9998
2 48781  87.9082 173.5644 0002084  74.6887 285.4473 13.15544796 64534
ONEWEB-0231             
1 48782U 21045R   22250.73633092 -.00000047  00000+0 -15941-3 0  9990
2 48782  87.9061 173.4808 0002425  65.6892 294.4491 13.15549080 63101
ONEWEB-0234             
1 48783U 21045S   22250.76168289  .00000043  00000+0  79706-4 0  9999
2 48783  87.9148 173.4919 0001546  67.9375 292.1919 13.15550278 64376
ONEWEB-0238             
1 48784U 21045T   22250.77329584  .00000133  00000+0  31989-3 0  9998
2 48784  87.9185 173.5313 0001791  71.3144 288.8181 13.15550687 63143
ONEWEB-0240             
1 48785U 21045U   22250.71943611  .00000028  00000+0  39824-4 0  9996
2 48785  87.9146 173.4891 0002062  52.5153 307.6165 13.15545828 63169
ONEWEB-0246             
1 48786U 21045V   22250.71519253  .00000090  00000+0  20535-3 0  9995
2 48786  87.9139 173.4928 0002357  67.4682 292.6698 13.15546811 63035
ONEWEB-0210             
1 48787U 21045W   22250.76591007  .00000194  00000+0  48216-3 0  9999
2 48787  87.9145 173.4891 0002934  72.8729 287.2723 13.15548644 64211
ONEWEB-0214             
1 48788U 21045X   22250.77644786 -.00000246  00000+0 -68814-3 0  9990
2 48788  87.9156 173.5177 0003041  77.6627 282.4843 13.15548165 63051
ONEWEB-0221             
1 48789U 21045Y   22250.70673364  .00000095  00000+0  21863-3 0  9991
2 48789  87.9140 173.5123 0002191  67.2785 292.8576 13.15551066 63132
ONEWEB-0213             
1 48790U 21045Z   22250.77013934  .00000110  00000+0  25874-3 0  9995
2 48790  87.9208 173.5254 0002393  67.3242 292.8141 13.15547485 63203
ONEWEB-0212             
1 48791U 21045AA  22250.75112208 -.00000095  00000+0 -28710-3 0  9994
2 48791  87.9201 173.5528 0001798  80.8981 279.2353 13.15546849 63194
ONEWEB-0227             
1 48792U 21045AB  22250.74478136 -.00000123  00000+0 -35947-3 0  9991
2 48792  87.9224 173.5631 0002020  66.2147 293.9195 13.15545384 63141
ONEWEB-0226             
1 48793U 21045AC  22250.73844346 -.00000143  00000+0 -41501-3 0  9996
2 48793  87.9196 173.4982 0002807  68.3458 291.7971 13.15549062 63111
ONEWEB-0224             
1 48794U 21045AD  22250.70463492  .00000120  00000+0  28457-3 0  9991
2 48794  87.9135 173.4827 0001481  72.6768 287.4525 13.15547908 63037
ONEWEB-0233             
1 48795U 21045AE  22250.72258151  .00000005  00000+0 -21955-4 0  9998
2 48795  87.9207 173.5055 0001887  62.6238 297.5084 13.15550487 63042
ONEWEB-0190             
1 48796U 21045AF  22250.77222822 -.00000028  00000+0 -10944-3 0  9991
2 48796  87.9209 173.4886 0003073  55.0707 305.0711 13.15549545 63137
ONEWEB-0236             
1 48797U 21045AG  22250.71309602  .00000346  00000+0  88575-3 0  9994
2 48797  87.9144 173.5323 0002053  72.7248 287.4107 13.15548643 64137
ONEWEB-0248             
1 48798U 21045AH  22250.72574852 -.00000024  00000+0 -97758-4 0  9996
2 48798  87.9146 173.5028 0002245  44.7905 315.3407 13.15545433 63175
ONEWEB-0225             
1 48799U 21045AJ  22250.74688475 -.00000162  00000+0 -46386-3 0  9999
2 48799  87.9187 173.5477 0002411  56.4090 303.7271 13.15549903 63186
ONEWEB-0215             
1 48800U 21045AK  22250.71730108  .00000041  00000+0  74634-4 0  9992
2 48800  87.9141 173.4987 0002568  47.9926 312.1423 13.15551039 63052
ONEWEB-0216             
1 48801U 21045AL  22250.72786859  .00000029  00000+0  43227-4 0  9998
2 48801  87.9187 173.5568 0002317  79.1265 281.0126 13.15547265 63065
ONEWEB-0239             
1 48802U 21045AM  22250.73210488 -.00000091  00000+0 -27519-3 0  9996
2 48802  87.9190 173.5597 0002446  46.0108 314.1224 13.15550015 63103
ONEWEB-0249             
1 48967U 21060A   22250.77027556  .00000083  00000+0  18356-3 0  9999
2 48967  87.9121 143.2475 0001807  75.6234 284.5097 13.16596839 58237
ONEWEB-0250             
1 48968U 21060B   22250.69888802  .00000101  00000+0  22981-3 0  9990
2 48968  87.9122 143.2659 0001920  63.4707 296.6621 13.16595949 58204
ONEWEB-0252             
1 48970U 21060D   22250.72652390 -.00000059  00000+0 -18878-3 0  9992
2 48970  87.9132 143.2388 0002219  71.6476 288.4896 13.16592766 58277
ONEWEB-0253             
1 48971U 21060E   22250.71729917  .00000001  00000+0 -32247-4 0  9995
2 48971  87.9111 143.2645 0002289  64.6325 295.5043 13.16594065 58203
ONEWEB-0254             
1 48972U 21060F   22250.72420483 -.00000397  00000+0 -10721-2 0  9993
2 48972  87.9133 143.2260 0002256  65.7702 294.3664 13.16593406 58200
ONEWEB-0255             
1 48973U 21060G   22250.76337240  .00000050  00000+0  98315-4 0  9997
2 48973  87.9119 143.2980 0001937  72.6981 287.4361 13.16592612 58288
ONEWEB-0256             
1 48974U 21060H   22250.71270201  .00000041  00000+0  73947-4 0  9990
2 48974  87.9111 143.2586 0002123  85.5747 274.5627 13.16595859 58248
ONEWEB-0257             
1 48975U 21060J   22250.74494629 -.00000059  00000+0 -18733-3 0  9998
2 48975  87.9114 143.2930 0002133  75.2412 284.8955 13.16595282 58205
ONEWEB-0258             
1 48976U 21060K   22250.74724826 -.00000021  00000+0 -88725-4 0  9992
2 48976  87.9121 143.2957 0001920  69.9100 290.2237 13.16595336 58215
ONEWEB-0259             
1 48977U 21060L   22250.74264749  .00000003  00000+0 -25061-4 0  9999
2 48977  87.9125 143.2744 0001791  60.1610 299.9698 13.16591025 58240
ONEWEB-0260             
1 48978U 21060M   22250.73572192 -.00000053  00000+0 -17111-3 0  9995
2 48978  87.9111 143.2686 0002744  85.7618 274.3826 13.16590675 58229
ONEWEB-0261             
1 48979U 21060N   22250.70118223  .00000028  00000+0  38722-4 0  9996
2 48979  87.9116 143.2830 0002269  70.6817 289.4559 13.16595360 58273
ONEWEB-0262             
1 48980U 21060P   22250.75876233 -.00000892  00000+0 -23672-2 0  9992
2 48980  87.9132 143.2314 0001998  53.2851 306.8464 13.16599379 58243
ONEWEB-0263             
1 48981U 21060Q   22250.71499765 -.00000005  00000+0 -47031-4 0  9993
2 48981  87.9139 143.2397 0002383  56.9735 303.1624 13.16596656 58201
ONEWEB-0264             
1 48982U 21060R   22250.75067775 -.00000498  00000+0 -13366-2 0  9998
2 48982  87.9147 143.1964 0002092  73.0995 287.0365 13.16595061 58217
ONEWEB-0266             
1 48984U 21060T   22250.77257678  .00000098  00000+0  22367-3 0  9991
2 48984  87.9130 143.2397 0001744  75.1327 284.9997 13.16591717 58207
ONEWEB-0267             
1 48985U 21060U   22250.70810500  .00000025  00000+0  31332-4 0  9997
2 48985  87.9133 143.2496 0002440  69.5419 290.5974 13.16595552 58203
ONEWEB-0268             
1 48986U 21060V   22250.75183998  .00000040  00000+0  70503-4 0  9997
2 48986  87.9130 143.2460 0002007  78.8046 281.3311 13.16597548 58479
